SL-14 R/B               
1 21423U 91042B   25342.25748623  .00000888  00000+0  10947-3 0  9998
2 21423  82.4921 305.9263 0017041 176.2472 183.8873 14.81732771839537
ERS-1                   
1 21574U 91050A   25342.28795411  .00000614  00000+0  21096-3 0  9998
2 21574  98.7905 353.2313 0032910 112.8124 247.6544 14.39359431802580
ARIANE 40 R/B           
1 21610U 91050F   25342.14006303  .00000609  00000+0  19521-3 0  9993
2 21610  98.2169  32.7364 0003073  13.8434 346.2841 14.42807297805799
INTERCOSMOS 25          
1 21819U 91086A   25342.17711142  .00002272  00000+0  45100-3 0  9990
2 21819  82.6071   5.3346 1486854 314.2361  34.5579 12.11705676485606
SL-8 R/B                
1 21876U 92008B   25342.23332060  .00000182  00000+0  17139-3 0  9992
2 21876  82.9263 335.7987 0035448  32.1446 338.2839 13.75957559696847
SL-8 R/B                
1 21938U 92020B   25342.19756940  .00000127  00000+0  11597-3 0  9998
2 21938  82.9311 221.6902 0028599 190.9819 289.3717 13.75525867688559
USA 81                  
1 21949U 92023A   25342.28356840  .00000329  00000+0  11472-3 0  9994
2 21949  85.0085 184.1462 0001601  63.0320 297.1036 14.32324612 81703
COSMOS 2219             
1 22219U 92076A   25342.05581977 -.00000130  00000+0 -43623-4 0  9995
2 22219  71.0588 209.6242 0018988 333.1846  26.8293 14.14062832705423
SL-16 R/B               
1 22220U 92076B   25342.27100340 -.00000126  00000+0 -39048-4 0  9993
2 22220  71.0012  20.9457 0014959 240.2543 189.3539 14.16841440708888
COSMOS 2221             
1 22236U 92080A   25342.33568950  .00003151  00000+0  28001-3 0  9992
2 22236  82.5041   6.5406 0015743 135.2704 224.9791 14.95735159767137
SL-16 R/B               
1 22285U 92093B   25342.29181136  .00000187  00000+0  12043-3 0  9997
2 22285  71.0201 196.1329 0002072  85.7593 274.3766 14.15426640700220
COSMOS 2228             
1 22286U 92094A   25342.27788143  .00003530  00000+0  30631-3 0  9996
2 22286  82.5177 324.8034 0016304 247.6344 112.3150 14.96696249762385
