CCSDS_OMM_VERS = 2.0
CREATION_DATE  = 
ORIGINATOR     = 

OBJECT_NAME    = SL-14 R/B
OBJECT_ID      = 1991-042B
CENTER_NAME    = EARTH
REF_FRAME      = TEME
TIME_SYSTEM    = UTC
MEAN_ELEMENT_THEORY = SGP/SGP4

EPOCH          = 2025-12-08T06:10:46.810272
MEAN_MOTION    = 14.81732771
ECCENTRICITY   = .00170417
INCLINATION    = 82.4921
RA_OF_ASC_NODE = 305.9263
ARG_OF_PERICENTER = 176.2472
MEAN_ANOMALY   = 183.8873

EPHEMERIS_TYPE = 0
CLASSIFICATION_TYPE = U
NORAD_CAT_ID   = 21423
ELEMENT_SET_NO = 999
REV_AT_EPOCH   = 83953
BSTAR          = .10946621E-3
MEAN_MOTION_DOT = .888E-5
MEAN_MOTION_DDOT = 0

CCSDS_OMM_VERS = 2.0
CREATION_DATE  = 
ORIGINATOR     = 

OBJECT_NAME    = ERS-1
OBJECT_ID      = 1991-050A
CENTER_NAME    = EARTH
REF_FRAME      = TEME
TIME_SYSTEM    = UTC
MEAN_ELEMENT_THEORY = SGP/SGP4

EPOCH          = 2025-12-08T06:54:39.235104
MEAN_MOTION    = 14.39359431
ECCENTRICITY   = .00329109
INCLINATION    = 98.7905
RA_OF_ASC_NODE = 353.2313
ARG_OF_PERICENTER = 112.8124
MEAN_ANOMALY   = 247.6544

EPHEMERIS_TYPE = 0
CLASSIFICATION_TYPE = U
NORAD_CAT_ID   = 21574
ELEMENT_SET_NO = 999
REV_AT_EPOCH   = 80258
BSTAR          = .2109616E-3
MEAN_MOTION_DOT = .614E-5
MEAN_MOTION_DDOT = 0

CCSDS_OMM_VERS = 2.0
CREATION_DATE  = 
ORIGINATOR     = 

OBJECT_NAME    = ARIANE 40 R/B
OBJECT_ID      = 1991-050F
CENTER_NAME    = EARTH
REF_FRAME      = TEME
TIME_SYSTEM    = UTC
MEAN_ELEMENT_THEORY = SGP/SGP4

EPOCH          = 2025-12-08T03:21:41.445792
MEAN_MOTION    = 14.42807297
ECCENTRICITY   = .00030732
INCLINATION    = 98.2169
RA_OF_ASC_NODE = 32.7364
ARG_OF_PERICENTER = 13.8434
MEAN_ANOMALY   = 346.2841

EPHEMERIS_TYPE = 0
CLASSIFICATION_TYPE = U
NORAD_CAT_ID   = 21610
ELEMENT_SET_NO = 999
REV_AT_EPOCH   = 80579
BSTAR          = .19520748E-3
MEAN_MOTION_DOT = .609E-5
MEAN_MOTION_DDOT = 0

CCSDS_OMM_VERS = 2.0
CREATION_DATE  = 
ORIGINATOR     = 

OBJECT_NAME    = INTERCOSMOS 25
OBJECT_ID      = 1991-086A
CENTER_NAME    = EARTH
REF_FRAME      = TEME
TIME_SYSTEM    = UTC
MEAN_ELEMENT_THEORY = SGP/SGP4

EPOCH          = 2025-12-08T04:15:02.426688
MEAN_MOTION    = 12.11705676
ECCENTRICITY   = .14868545
INCLINATION    = 82.6071
RA_OF_ASC_NODE = 5.3346
ARG_OF_PERICENTER = 314.2361
MEAN_ANOMALY   = 34.5579

EPHEMERIS_TYPE = 0
CLASSIFICATION_TYPE = U
NORAD_CAT_ID   = 21819
ELEMENT_SET_NO = 999
REV_AT_EPOCH   = 48560
BSTAR          = .45099983E-3
MEAN_MOTION_DOT = .2272E-4
MEAN_MOTION_DDOT = 0

CCSDS_OMM_VERS = 2.0
CREATION_DATE  = 
ORIGINATOR     = 

OBJECT_NAME    = SL-8 R/B
OBJECT_ID      = 1992-008B
CENTER_NAME    = EARTH
REF_FRAME      = TEME
TIME_SYSTEM    = UTC
MEAN_ELEMENT_THEORY = SGP/SGP4

EPOCH          = 2025-12-08T05:35:58.899840
MEAN_MOTION    = 13.75957559
ECCENTRICITY   = .00354484
INCLINATION    = 82.9263
RA_OF_ASC_NODE = 335.7987
ARG_OF_PERICENTER = 32.1446
MEAN_ANOMALY   = 338.2839

EPHEMERIS_TYPE = 0
CLASSIFICATION_TYPE = U
NORAD_CAT_ID   = 21876
ELEMENT_SET_NO = 999
REV_AT_EPOCH   = 69684
BSTAR          = .1713884E-3
MEAN_MOTION_DOT = .182E-5
MEAN_MOTION_DDOT = 0

CCSDS_OMM_VERS = 2.0
CREATION_DATE  = 
ORIGINATOR     = 

OBJECT_NAME    = SL-8 R/B
OBJECT_ID      = 1992-020B
CENTER_NAME    = EARTH
REF_FRAME      = TEME
TIME_SYSTEM    = UTC
MEAN_ELEMENT_THEORY = SGP/SGP4

EPOCH          = 2025-12-08T04:44:29.996160
MEAN_MOTION    = 13.75525867
ECCENTRICITY   = .00285995
INCLINATION    = 82.9311
RA_OF_ASC_NODE = 221.6902
ARG_OF_PERICENTER = 190.9819
MEAN_ANOMALY   = 289.3717

EPHEMERIS_TYPE = 0
CLASSIFICATION_TYPE = U
NORAD_CAT_ID   = 21938
ELEMENT_SET_NO = 999
REV_AT_EPOCH   = 68855
BSTAR          = .11596649E-3
MEAN_MOTION_DOT = .127E-5
MEAN_MOTION_DDOT = 0

CCSDS_OMM_VERS = 2.0
CREATION_DATE  = 
ORIGINATOR     = 

OBJECT_NAME    = USA 81
OBJECT_ID      = 1992-023A
CENTER_NAME    = EARTH
REF_FRAME      = TEME
TIME_SYSTEM    = UTC
MEAN_ELEMENT_THEORY = SGP/SGP4

EPOCH          = 2025-12-08T06:48:20.309760
MEAN_MOTION    = 14.32324612
ECCENTRICITY   = .00016011
INCLINATION    = 85.0085
RA_OF_ASC_NODE = 184.1462
ARG_OF_PERICENTER = 63.0320
MEAN_ANOMALY   = 297.1036

EPHEMERIS_TYPE = 0
CLASSIFICATION_TYPE = U
NORAD_CAT_ID   = 21949
ELEMENT_SET_NO = 999
REV_AT_EPOCH   = 8170
BSTAR          = .11471854E-3
MEAN_MOTION_DOT = .329E-5
MEAN_MOTION_DDOT = 0

CCSDS_OMM_VERS = 2.0
CREATION_DATE  = 
ORIGINATOR     = 

OBJECT_NAME    = COSMOS 2219
OBJECT_ID      = 1992-076A
CENTER_NAME    = EARTH
REF_FRAME      = TEME
TIME_SYSTEM    = UTC
MEAN_ELEMENT_THEORY = SGP/SGP4

EPOCH          = 2025-12-08T01:20:22.828128
MEAN_MOTION    = 14.14062832
ECCENTRICITY   = .00189883
INCLINATION    = 71.0588
RA_OF_ASC_NODE = 209.6242
ARG_OF_PERICENTER = 333.1846
MEAN_ANOMALY   = 26.8293

EPHEMERIS_TYPE = 0
CLASSIFICATION_TYPE = U
NORAD_CAT_ID   = 22219
ELEMENT_SET_NO = 999
REV_AT_EPOCH   = 70542
BSTAR          = -.43622833E-4
MEAN_MOTION_DOT = -.13E-5
MEAN_MOTION_DDOT = 0

CCSDS_OMM_VERS = 2.0
CREATION_DATE  = 
ORIGINATOR     = 

OBJECT_NAME    = SL-16 R/B
OBJECT_ID      = 1992-076B
CENTER_NAME    = EARTH
REF_FRAME      = TEME
TIME_SYSTEM    = UTC
MEAN_ELEMENT_THEORY = SGP/SGP4

EPOCH          = 2025-12-08T06:30:14.693760
MEAN_MOTION    = 14.16841440
ECCENTRICITY   = .00149598
INCLINATION    = 71.0012
RA_OF_ASC_NODE = 20.9457
ARG_OF_PERICENTER = 240.2543
MEAN_ANOMALY   = 189.3539

EPHEMERIS_TYPE = 0
CLASSIFICATION_TYPE = U
NORAD_CAT_ID   = 22220
ELEMENT_SET_NO = 999
REV_AT_EPOCH   = 70888
BSTAR          = -.39048311E-4
MEAN_MOTION_DOT = -.126E-5
MEAN_MOTION_DDOT = 0

CCSDS_OMM_VERS = 2.0
CREATION_DATE  = 
ORIGINATOR     = 

OBJECT_NAME    = COSMOS 2221
OBJECT_ID      = 1992-080A
CENTER_NAME    = EARTH
REF_FRAME      = TEME
TIME_SYSTEM    = UTC
MEAN_ELEMENT_THEORY = SGP/SGP4

EPOCH          = 2025-12-08T08:03:23.572800
MEAN_MOTION    = 14.95735159
ECCENTRICITY   = .00157435
INCLINATION    = 82.5041
RA_OF_ASC_NODE = 6.5406
ARG_OF_PERICENTER = 135.2704
MEAN_ANOMALY   = 224.9791

EPHEMERIS_TYPE = 0
CLASSIFICATION_TYPE = U
NORAD_CAT_ID   = 22236
ELEMENT_SET_NO = 999
REV_AT_EPOCH   = 76713
BSTAR          = .28001162E-3
MEAN_MOTION_DOT = .3151E-4
MEAN_MOTION_DDOT = 0

CCSDS_OMM_VERS = 2.0
CREATION_DATE  = 
ORIGINATOR     = 

OBJECT_NAME    = SL-16 R/B
OBJECT_ID      = 1992-093B
CENTER_NAME    = EARTH
REF_FRAME      = TEME
TIME_SYSTEM    = UTC
MEAN_ELEMENT_THEORY = SGP/SGP4

EPOCH          = 2025-12-08T07:00:12.501504
MEAN_MOTION    = 14.15426640
ECCENTRICITY   = .00020729
INCLINATION    = 71.0201
RA_OF_ASC_NODE = 196.1329
ARG_OF_PERICENTER = 85.7593
MEAN_ANOMALY   = 274.3766

EPHEMERIS_TYPE = 0
CLASSIFICATION_TYPE = U
NORAD_CAT_ID   = 22285
ELEMENT_SET_NO = 999
REV_AT_EPOCH   = 70022
BSTAR          = .12042738E-3
MEAN_MOTION_DOT = .187E-5
MEAN_MOTION_DDOT = 0

CCSDS_OMM_VERS = 2.0
CREATION_DATE  = 
ORIGINATOR     = 

OBJECT_NAME    = COSMOS 2228
OBJECT_ID      = 1992-094A
CENTER_NAME    = EARTH
REF_FRAME      = TEME
TIME_SYSTEM    = UTC
MEAN_ELEMENT_THEORY = SGP/SGP4

EPOCH          = 2025-12-08T06:40:08.955552
MEAN_MOTION    = 14.96696249
ECCENTRICITY   = .0016304
INCLINATION    = 82.5177
RA_OF_ASC_NODE = 324.8034
ARG_OF_PERICENTER = 247.6344
MEAN_ANOMALY   = 112.3150

EPHEMERIS_TYPE = 0
CLASSIFICATION_TYPE = U
NORAD_CAT_ID   = 22286
ELEMENT_SET_NO = 999
REV_AT_EPOCH   = 76238
BSTAR          = .30630871E-3
MEAN_MOTION_DOT = .353E-4
MEAN_MOTION_DDOT = 0

